*******************************************************************************
 Revised: July 31, 2013                 Venus                           299 / 2
 
 PHYSICAL DATA (updated 2018-Aug-15):
  Vol. Mean Radius (km) =  6051.84+-0.01 Density (g/cm^3)      =  5.204
  Mass x10^23 (kg)      =    48.685      Volume (x10^10 km^3)  = 92.843
  Sidereal rot. period  =   243.022498 d Sid. Rot. Rate (rad/s)= -0.00000029924
  Mean solar day        =   116.7490 d   Equ. gravity  m/s^2   =  8.870
  Mom. of Inertia       =     0.33       Core radius (km)      = ~3200
  Geometric Albedo      =     0.65       Potential Love # k2   = ~0.25
  GM (km^3/s^2)         = 324858.592     Equatorial Radius, Re = 6051.893 km
  GM 1-sigma (km^3/s^2) =    +-0.006     Mass ratio (Sun/Venus)= 408523.72
  Atmos. pressure (bar) =  90            Max. angular diam.    =   60.2"
  Mean Temperature (K)  = 735            Visual mag. V(1,0)    =   -4.40
  Obliquity to orbit    = 177.3 deg      Hill's sphere rad.,Rp =  167.1
  Sidereal orb. per., y =   0.61519726   Orbit speed, km/s     =   35.021
  Sidereal orb. per., d = 224.70079922   Escape speed, km/s    =   10.361
                                 Perihelion  Aphelion    Mean
  Solar Constant (W/m^2)         2759        2650        2614
  Maximum Planetary IR (W/m^2)    153         153         153
  Minimum Planetary IR (W/m^2)    153         153         153
*******************************************************************************
 
 
*******************************************************************************
Ephemeris / WWW_USER Fri Nov  2 19:14:01 2018 Pasadena, USA      / Horizons    
*******************************************************************************
Target body name: Venus (299)                     {source: DE431mx}
Center body name: Solar System Barycenter (0)     {source: DE431mx}
Center-site name: BODY CENTER
*******************************************************************************
Start time      : A.D. 2020-Jan-01 00:00:00.0000 TDB
Stop  time      : A.D. 2035-Dec-31 00:00:00.0000 TDB
Step-size       : 1440 minutes
*******************************************************************************
Center geodetic : 0.00000000,0.00000000,0.0000000 {E-lon(deg),Lat(deg),Alt(km)}
Center cylindric: 0.00000000,0.00000000,0.0000000 {E-lon(deg),Dxy(km),Dz(km)}
Center radii    : (undefined)                                                  
Output units    : KM-S                                                         
Output type     : GEOMETRIC cartesian states
Output format   : 3 (position, velocity, LT, range, range-rate)
Reference frame : ICRF/J2000.0                                                 
Coordinate systm: Ecliptic and Mean Equinox of Reference Epoch                 
*******************************************************************************
            JDTDB,            Calendar Date (TDB),                      X,                      Y,                      Z,                     VX,                     VY,                     VZ,                     LT,                     RG,                     RR,
**************************************************************************************************************************************************************************************************************************************************************************
$$SOE
2458873.500000000, A.D. 2020-Jan-25 00:00:00.0000,  7.916450777765730E+07,  7.411439377161735E+07, -3.596814898529131E+06, -2.376670229694562E+01,  2.568064753687736E+01,  1.723503392098586E+00,  3.619270306027044E+02,  1.085029941210260E+08,  1.440256323860548E-01,
2458874.500000000, A.D. 2020-Jan-26 00:00:00.0000,  7.708013012299761E+07,  7.630435136772339E+07, -3.446514915212099E+06, -2.447970323305587E+01,  2.500944586890895E+01,  1.755439076596726E+00,  3.619682112102678E+02,  1.085153397565893E+08,  1.417374501267681E-01,
2458875.500000000, A.D. 2020-Jan-27 00:00:00.0000,  7.493495508671172E+07,  7.843545108723401E+07, -3.293514078503296E+06, -2.517395365460390E+01,  2.431828189690958E+01,  1.786018808202952E+00,  3.620087190119853E+02,  1.085274836900344E+08,  1.393568263484439E-01,
2458876.500000000, A.D. 2020-Jan-28 00:00:00.0000,  7.273062725528507E+07,  8.050599051394841E+07, -3.137930652618896E+06, -2.584888774266998E+01,  2.360767522660873E+01,  1.815217065033035E+00,  3.620485275632371E+02,  1.085394179934636E+08,  1.368851379438046E-01,
2458877.500000000, A.D. 2020-Jan-29 00:00:00.0000,  7.046883950271307E+07,  8.251431284125583E+07, -2.979885062464301E+06, -2.650395363451747E+01,  2.287816197202815E+01,  1.843009357116861E+00,  3.620876108248573E+02,  1.085511348605314E+08,  1.343238216732850E-01,
2458878.500000000, A.D. 2020-Jan-30 00:00:00.0000,  6.815133176281692E+07,  8.445880828322953E+07, -2.819499803423371E+06, -2.713861392861077E+01,  2.213029440031289E+01,  1.869372250673340E+00,  3.621259431803423E+02,  1.085626266116032E+08,  1.316743738481983E-01,
2458879.500000000, A.D. 2020-Jan-31 00:00:00.0000,  6.577988975825348E+07,  8.633791545431024E+07, -2.656899349079091E+06, -2.775234618195155E+01,  2.136464055981926E+01,  1.894283391712979E+00,  3.621634994529646E+02,  1.085738856988859E+08,  1.289383499836651E-01,
2458880.500000000, A.D. 2020-Feb-01 00:00:00.0000,  6.335634368690940E+07,  8.815012271613616E+07, -2.492210056925301E+06, -2.834464339910986E+01,  2.058178389153879E+01,  1.917721528933012E+00,  3.622002549227820E+02,  1.085849047115274E+08,  1.261173644240821E-01,
2458881.500000000, A.D. 2020-Feb-02 00:00:00.0000,  6.088256686641654E+07,  8.989396949008915E+07, -2.325560072130848E+06, -2.891501451242165E+01,  1.978232282408479E+01,  1.939666535880794E+00,  3.622361853435357E+02,  1.085956763806822E+08,  1.232130899894954E-01,
2458882.500000000, A.D. 2020-Feb-03 00:00:00.0000,  5.836047433762462E+07,  9.156804753411858E+07, -2.157079229429133E+06, -2.946298485221466E+01,  1.896687035195998E+01,  1.960099432270733E+00,  3.622712669594642E+02,  1.086061935845520E+08,  1.202272575836689E-01,
2458883.500000000, A.D. 2020-Feb-04 00:00:00.0000,  5.579202142779289E+07,  9.317100218247160E+07, -1.986898953184411E+06, -2.998809660790324E+01,  1.813605359834511E+01,  1.979002404671888E+00,  3.623054765219646E+02,  1.086164493533811E+08,  1.171616558591323E-01,
2458884.500000000, A.D. 2020-Feb-05 00:00:00.0000,  5.317920227452011E+07,  9.470153354690054E+07, -1.815152155728240E+06, -3.048990927666661E+01,  1.729051336093139E+01,  1.996358826058420E+00,  3.623387913062299E+02,  1.086264368744437E+08,  1.140181310130249E-01,
2458885.500000000, A.D. 2020-Feb-06 00:00:00.0000,  5.052404831132749E+07,  9.615839767797378E+07, -1.641973134031132E+06, -3.096800010181889E+01,  1.643090364248319E+01,  2.012153274692571E+00,  3.623711891277653E+02,  1.086361494969956E+08,  1.107985863822371E-01,
2458886.500000000, A.D. 2020-Feb-07 00:00:00.0000,  4.782862671590412E+07,  9.754040768515119E+07, -1.467497464785941E+06, -3.142196449866219E+01,  1.555789116576996E+01,  2.026371552007036E+00,  3.624026483588268E+02,  1.086455807372023E+08,  1.075049822456799E-01,
2458887.500000000, A.D. 2020-Feb-08 00:00:00.0000,  4.509503882211538E+07,  9.884643481427954E+07, -1.291861897989102E+06, -3.185141646737439E+01,  1.467215487301221E+01,  2.039000699497247E+00,  3.624331479447960E+02,  1.086547242830480E+08,  1.041393355476407E-01,
2458888.500000000, A.D. 2020-Feb-09 00:00:00.0000,  4.232541849691503E+07,  1.000754094811785E+08, -1.115204249104969E+06, -3.225598899245784E+01,  1.377438541006007E+01,  2.050029014626826E+00,  3.624626674204390E+02,  1.086635739992099E+08,  1.007037193332950E-01,
2458889.500000000, A.D. 2020-Feb-10 00:00:00.0000,  3.952193048334320E+07,  1.012263222600105E+08, -9.376632898987308E+05, -3.263533442825086E+01,  1.286528459559695E+01,  2.059446065741596E+00,  3.624911869259445E+02,  1.086721239318664E+08,  9.720026177005905E-02,
2458890.500000000, A.D. 2020-Feb-11 00:00:00.0000,  3.668676871083719E+07,  1.022982248251555E+08, -7.593786380239502E+05, -3.298912486997860E+01,  1.194556487573463E+01,  2.067242705980234E+00,  3.625186872226138E+02,  1.086803683134006E+08,  9.363114471302744E-02,
2458891.500000000, A.D. 2020-Feb-12 00:00:00.0000,  3.382215457412767E+07,  1.032902308453478E+08, -5.804906454522461E+05, -3.331705250979537E+01,  1.101594876443984E+01,  2.073411086161875E+00,  3.625451497080758E+02,  1.086883015669620E+08,  8.999860185658909E-02,
2458892.500000000, A.D. 2020-Feb-13 00:00:00.0000,  3.093033518204185E+07,  1.042015168288715E+08, -4.011402858346924E+05, -3.361882997724506E+01,  1.007716827030656E+01,  2.077944666623449E+00,  3.625705564309245E+02,  1.086959183108546E+08,  8.630491659407506E-02,
2458893.500000000, A.D. 2020-Feb-14 00:00:00.0000,  2.801358157758530E+07,  1.050313229186599E+08, -2.214690408870056E+05, -3.389419066354218E+01,  9.129964310261702E+00,  2.080838227972056E+00,  3.625948901047180E+02,  1.087032133627333E+08,  8.255241978021222E-02,
2458894.500000000, A.D. 2020-Feb-15 00:00:00.0000,  2.507418693072737E+07,  1.057789536361989E+08, -4.161878589406610E+04, -3.414288902905027E+01,  8.175086110866181E+00,  2.082087880709949E+00,  3.626181341213516E+02,  1.087101817436137E+08,  7.874348765444185E-02,
2458895.500000000, A.D. 2020-Feb-16 00:00:00.0000,  2.211446470536935E+07,  1.064437785731921E+08,  1.382683255665451E+05, -3.436470089331049E+01,  7.213290597946743E+00,  2.081691073682265E+00,  3.626402725638894E+02,  1.087168186817183E+08,  7.488054023343053E-02,
2458896.500000000, A.D. 2020-Feb-17 00:00:00.0000,  1.913674680203230E+07,  1.070252330300159E+08,  3.180499775781631E+05, -3.455942370694740E+01,  6.245341775368209E+00,  2.079646601289958E+00,  3.626612902190436E+02,  1.087231196162184E+08,  7.096604051665568E-02,
